ONEWEB-0636             
1 56077U 23043AH  25255.60303090  .00000022  00000+0  24717-4 0  9995
2 56077  87.9025 314.5999 0001947  91.5816 268.5538 13.15549531119914
ONEWEB-0637             
1 56078U 23043AJ  25255.59670799 -.00000037  00000+0 -13287-3 0  9994
2 56078  87.9028 314.6139 0002247  96.6763 263.4623 13.15548464119931
ONEWEB-0647             
1 56079U 23043AK  25255.59193404 -.00000003  00000+0 -41687-4 0  9997
2 56079  87.9031 314.6278 0001798  92.5673 267.5663 13.15549134119928
ONEWEB-0651             
1 56080U 23043AL  25255.58719154 -.00000062  00000+0 -19995-3 0  9995
2 56080  87.9039 314.6199 0002127  92.5728 267.5646 13.15547616121127
ONEWEB-0718             
1 56081U 23043AM  25255.58243750 -.00000079  00000+0 -24364-3 0  9994
2 56081  87.9031 314.6021 0002145 113.3588 246.7768 13.15549326119930
ONEWEB-0561             
1 56710U 23068A   25255.47337487  .00000034  00000+0  52376-4 0  9993
2 56710  87.9271 329.8210 0001895  83.6327 276.5022 13.20770143112840
ONEWEB-0668             
1 56711U 23068B   25255.53574498  .00000110  00000+0  25501-3 0  9990
2 56711  87.8992 284.0977 0002274 104.3750 255.7633 13.16592741115240
ONEWEB-0676             
1 56712U 23068C   25255.51594213  .00000048  00000+0  93048-4 0  9998
2 56712  87.8982 284.1208 0001975  83.1383 276.9973 13.16594236115165
ONEWEB-0677             
1 56713U 23068D   25255.46232793  .00000002  00000+0 -27246-4 0  9993
2 56713  87.9273 329.7998 0002102  94.2022 265.9352 13.20771297113142
ONEWEB-0678             
1 56714U 23068E   25254.71411009  .00000037  00000+0  63378-4 0  9993
2 56714  87.9042 314.7477 0001539  91.7529 268.3778 13.15549564112670
ONEWEB-0679             
1 56715U 23068F   25255.40909153 -.00000074  00000+0 -22792-3 0  9990
2 56715  87.8985 284.1344 0002437  91.9224 268.2186 13.16594518115171
ONEWEB-0680             
1 56716U 23068G   25255.59425734 -.00000016  00000+0 -69559-4 0  9998
2 56716  87.9205 299.3577 0002490 104.6298 255.5112 13.21825173114421
ONEWEB-0681             
1 56717U 23068H   25255.42079352 -.00000005  00000+0 -42836-4 0  9999
2 56717  87.9208 299.4091 0002590  72.2504 287.8912 13.21827257114395
ONEWEB-0682             
1 56718U 23068J   25255.57688499 -.00000120  00000+0 -35179-3 0  9993
2 56718  87.9029 314.5965 0002404 103.4215 256.7183 13.15548352112950
ONEWEB-0683             
1 56719U 23068K   25255.59827975  .00000001  00000+0 -32409-4 0  9991
2 56719  87.9033 314.5705 0002123 103.1572 256.9795 13.15549211112922
ONEWEB-0684             
1 56720U 23068L   25255.45407772  .00000076  00000+0  16766-3 0  9995
2 56720  87.9018 314.5990 0000651 142.8650 217.2526 13.15549113112736
