[{"OBJECT_NAME":"ONEWEB-0636","OBJECT_ID":"2023-043AH","EPOCH":"2025-09-12T14:28:21.869760","MEAN_MOTION":13.15549531,"ECCENTRICITY":0.00019472,"INCLINATION":87.9025,"RA_OF_ASC_NODE":314.5999,"ARG_OF_PERICENTER":91.5816,"MEAN_ANOMALY":268.5538,"EPHEMERIS_TYPE":0,"CLASSIFICATION_TYPE":"U","NORAD_CAT_ID":56077,"ELEMENT_SET_NO":999,"REV_AT_EPOCH":11991,"BSTAR":2.4717416e-5,"MEAN_MOTION_DOT":2.2e-7,"MEAN_MOTION_DDOT":0},{"OBJECT_NAME":"ONEWEB-0637","OBJECT_ID":"2023-043AJ","EPOCH":"2025-09-12T14:19:15.570336","MEAN_MOTION":13.15548464,"ECCENTRICITY":0.00022479,"INCLINATION":87.9028,"RA_OF_ASC_NODE":314.6139,"ARG_OF_PERICENTER":96.6763,"MEAN_ANOMALY":263.4623,"EPHEMERIS_TYPE":0,"CLASSIFICATION_TYPE":"U","NORAD_CAT_ID":56078,"ELEMENT_SET_NO":999,"REV_AT_EPOCH":11993,"BSTAR":-0.00013286556,"MEAN_MOTION_DOT":-3.7e-7,"MEAN_MOTION_DDOT":0},{"OBJECT_NAME":"ONEWEB-0647","OBJECT_ID":"2023-043AK","EPOCH":"2025-09-12T14:12:23.101056","MEAN_MOTION":13.15549134,"ECCENTRICITY":0.00017985,"INCLINATION":87.9031,"RA_OF_ASC_NODE":314.6278,"ARG_OF_PERICENTER":92.5673,"MEAN_ANOMALY":267.5663,"EPHEMERIS_TYPE":0,"CLASSIFICATION_TYPE":"U","NORAD_CAT_ID":56079,"ELEMENT_SET_NO":999,"REV_AT_EPOCH":11992,"BSTAR":-4.168659e-5,"MEAN_MOTION_DOT":-3.0e-8,"MEAN_MOTION_DDOT":0},{"OBJECT_NAME":"ONEWEB-0651","OBJECT_ID":"2023-043AL","EPOCH":"2025-09-12T14:05:33.349056","MEAN_MOTION":13.15547616,"ECCENTRICITY":0.00021273,"INCLINATION":87.9039,"RA_OF_ASC_NODE":314.6199,"ARG_OF_PERICENTER":92.5728,"MEAN_ANOMALY":267.5646,"EPHEMERIS_TYPE":0,"CLASSIFICATION_TYPE":"U","NORAD_CAT_ID":56080,"ELEMENT_SET_NO":999,"REV_AT_EPOCH":12112,"BSTAR":-0.00019994763,"MEAN_MOTION_DOT":-6.2e-7,"MEAN_MOTION_DDOT":0},{"OBJECT_NAME":"ONEWEB-0718","OBJECT_ID":"2023-043AM","EPOCH":"2025-09-12T13:58:42.600000","MEAN_MOTION":13.15549326,"ECCENTRICITY":0.00021456,"INCLINATION":87.9031,"RA_OF_ASC_NODE":314.6021,"ARG_OF_PERICENTER":113.3588,"MEAN_ANOMALY":246.7768,"EPHEMERIS_TYPE":0,"CLASSIFICATION_TYPE":"U","NORAD_CAT_ID":56081,"ELEMENT_SET_NO":999,"REV_AT_EPOCH":11993,"BSTAR":-0.0002436425,"MEAN_MOTION_DOT":-7.9e-7,"MEAN_MOTION_DDOT":0},{"OBJECT_NAME":"ONEWEB-0561","OBJECT_ID":"2023-068A","EPOCH":"2025-09-12T11:21:39.588768","MEAN_MOTION":13.20770143,"ECCENTRICITY":0.00018953,"INCLINATION":87.9271,"RA_OF_ASC_NODE":329.821,"ARG_OF_PERICENTER":83.6327,"MEAN_ANOMALY":276.5022,"EPHEMERIS_TYPE":0,"CLASSIFICATION_TYPE":"U","NORAD_CAT_ID":56710,"ELEMENT_SET_NO":999,"REV_AT_EPOCH":11284,"BSTAR":5.2376311e-5,"MEAN_MOTION_DOT":3.4e-7,"MEAN_MOTION_DDOT":0},{"OBJECT_NAME":"ONEWEB-0668","OBJECT_ID":"2023-068B","EPOCH":"2025-09-12T12:51:28.366272","MEAN_MOTION":13.16592741,"ECCENTRICITY":0.00022746,"INCLINATION":87.8992,"RA_OF_ASC_NODE":284.0977,"ARG_OF_PERICENTER":104.375,"MEAN_ANOMALY":255.7633,"EPHEMERIS_TYPE":0,"CLASSIFICATION_TYPE":"U","NORAD_CAT_ID":56711,"ELEMENT_SET_NO":999,"REV_AT_EPOCH":11524,"BSTAR":0.00025501372,"MEAN_MOTION_DOT":1.1e-6,"MEAN_MOTION_DDOT":0},{"OBJECT_NAME":"ONEWEB-0676","OBJECT_ID":"2023-068C","EPOCH":"2025-09-12T12:22:57.400032","MEAN_MOTION":13.16594236,"ECCENTRICITY":0.00019758,"INCLINATION":87.8982,"RA_OF_ASC_NODE":284.1208,"ARG_OF_PERICENTER":83.1383,"MEAN_ANOMALY":276.9973,"EPHEMERIS_TYPE":0,"CLASSIFICATION_TYPE":"U","NORAD_CAT_ID":56712,"ELEMENT_SET_NO":999,"REV_AT_EPOCH":11516,"BSTAR":9.3048217e-5,"MEAN_MOTION_DOT":4.8e-7,"MEAN_MOTION_DDOT":0},{"OBJECT_NAME":"ONEWEB-0677","OBJECT_ID":"2023-068D","EPOCH":"2025-09-12T11:05:45.133152","MEAN_MOTION":13.20771297,"ECCENTRICITY":0.00021027,"INCLINATION":87.9273,"RA_OF_ASC_NODE":329.7998,"ARG_OF_PERICENTER":94.2022,"MEAN_ANOMALY":265.9352,"EPHEMERIS_TYPE":0,"CLASSIFICATION_TYPE":"U","NORAD_CAT_ID":56713,"ELEMENT_SET_NO":999,"REV_AT_EPOCH":11314,"BSTAR":-2.7245536e-5,"MEAN_MOTION_DOT":2.0e-8,"MEAN_MOTION_DDOT":0},{"OBJECT_NAME":"ONEWEB-0678","OBJECT_ID":"2023-068E","EPOCH":"2025-09-11T17:08:19.111776","MEAN_MOTION":13.15549564,"ECCENTRICITY":0.00015397,"INCLINATION":87.9042,"RA_OF_ASC_NODE":314.7477,"ARG_OF_PERICENTER":91.7529,"MEAN_ANOMALY":268.3778,"EPHEMERIS_TYPE":0,"CLASSIFICATION_TYPE":"U","NORAD_CAT_ID":56714,"ELEMENT_SET_NO":999,"REV_AT_EPOCH":11267,"BSTAR":6.3378266e-5,"MEAN_MOTION_DOT":3.7e-7,"MEAN_MOTION_DDOT":0},{"OBJECT_NAME":"ONEWEB-0679","OBJECT_ID":"2023-068F","EPOCH":"2025-09-12T09:49:05.508192","MEAN_MOTION":13.16594518,"ECCENTRICITY":0.00024373,"INCLINATION":87.8985,"RA_OF_ASC_NODE":284.1344,"ARG_OF_PERICENTER":91.9224,"MEAN_ANOMALY":268.2186,"EPHEMERIS_TYPE":0,"CLASSIFICATION_TYPE":"U","NORAD_CAT_ID":56715,"ELEMENT_SET_NO":999,"REV_AT_EPOCH":11517,"BSTAR":-0.00022791712,"MEAN_MOTION_DOT":-7.4e-7,"MEAN_MOTION_DDOT":0},{"OBJECT_NAME":"ONEWEB-0680","OBJECT_ID":"2023-068G","EPOCH":"2025-09-12T14:15:43.834176","MEAN_MOTION":13.21825173,"ECCENTRICITY":0.00024902,"INCLINATION":87.9205,"RA_OF_ASC_NODE":299.3577,"ARG_OF_PERICENTER":104.6298,"MEAN_ANOMALY":255.5112,"EPHEMERIS_TYPE":0,"CLASSIFICATION_TYPE":"U","NORAD_CAT_ID":56716,"ELEMENT_SET_NO":999,"REV_AT_EPOCH":11442,"BSTAR":-6.9558733e-5,"MEAN_MOTION_DOT":-1.6e-7,"MEAN_MOTION_DDOT":0},{"OBJECT_NAME":"ONEWEB-0681","OBJECT_ID":"2023-068H","EPOCH":"2025-09-12T10:05:56.560128","MEAN_MOTION":13.21827257,"ECCENTRICITY":0.00025906,"INCLINATION":87.9208,"RA_OF_ASC_NODE":299.4091,"ARG_OF_PERICENTER":72.2504,"MEAN_ANOMALY":287.8912,"EPHEMERIS_TYPE":0,"CLASSIFICATION_TYPE":"U","NORAD_CAT_ID":56717,"ELEMENT_SET_NO":999,"REV_AT_EPOCH":11439,"BSTAR":-4.2835539e-5,"MEAN_MOTION_DOT":-5.0e-8,"MEAN_MOTION_DDOT":0},{"OBJECT_NAME":"ONEWEB-0682","OBJECT_ID":"2023-068J","EPOCH":"2025-09-12T13:50:42.863136","MEAN_MOTION":13.15548352,"ECCENTRICITY":0.00024042,"INCLINATION":87.9029,"RA_OF_ASC_NODE":314.5965,"ARG_OF_PERICENTER":103.4215,"MEAN_ANOMALY":256.7183,"EPHEMERIS_TYPE":0,"CLASSIFICATION_TYPE":"U","NORAD_CAT_ID":56718,"ELEMENT_SET_NO":999,"REV_AT_EPOCH":11295,"BSTAR":-0.00035178793,"MEAN_MOTION_DOT":-1.2e-6,"MEAN_MOTION_DDOT":0},{"OBJECT_NAME":"ONEWEB-0683","OBJECT_ID":"2023-068K","EPOCH":"2025-09-12T14:21:31.370400","MEAN_MOTION":13.15549211,"ECCENTRICITY":0.00021231,"INCLINATION":87.9033,"RA_OF_ASC_NODE":314.5705,"ARG_OF_PERICENTER":103.1572,"MEAN_ANOMALY":256.9795,"EPHEMERIS_TYPE":0,"CLASSIFICATION_TYPE":"U","NORAD_CAT_ID":56719,"ELEMENT_SET_NO":999,"REV_AT_EPOCH":11292,"BSTAR":-3.2408598e-5,"MEAN_MOTION_DOT":1.0e-8,"MEAN_MOTION_DDOT":0},{"OBJECT_NAME":"ONEWEB-0684","OBJECT_ID":"2023-068L","EPOCH":"2025-09-12T10:53:52.315008","MEAN_MOTION":13.15549113,"ECCENTRICITY":6.516e-5,"INCLINATION":87.9018,"RA_OF_ASC_NODE":314.599,"ARG_OF_PERICENTER":142.865,"MEAN_ANOMALY":217.2526,"EPHEMERIS_TYPE":0,"CLASSIFICATION_TYPE":"U","NORAD_CAT_ID":56720,"ELEMENT_SET_NO":999,"REV_AT_EPOCH":11273,"BSTAR":0.00016766168,"MEAN_MOTION_DOT":7.6e-7,"MEAN_MOTION_DDOT":0}]
